FALCONSAT-10            
1 58291U 23174AM  26068.70247784  .00006748  00000+0  25969-3 0  9991
2 58291  97.3865 145.7938 0008932 169.5942 190.5483 15.26670596129582
STARLINK-31851          
1 59844U 24097K   26068.00227620 -.00000482  00000+0 -80125-5 0  9999
2 59844  42.9994 278.0740 0001288 263.3021  96.7684 15.27574121101819
